#cP2014  2 13  0  0  0.00000000      96 ORBIT IGb08 HLM  IGS
## 1779 345600.00000000   900.00000000 56701 0.0000000000000
+   31   G01G02G03G04G05G06G07G08G09G10G11G12G13G14G15G16G17
+        G18G19G20G21G22G23G24G25G26G27G28G29G31G32  0  0  0
+          0  0  0  0  0  0  0  0  0  0  0  0  0  0  0  0  0
+          0  0  0  0  0  0  0  0  0  0  0  0  0  0  0  0  0
+          0  0  0  0  0  0  0  0  0  0  0  0  0  0  0  0  0
++         2  2  2  2  2  2  2  3  3  2  2  2  2  2  2  2  2
++         2  2  2  2  2  2  2  2  2  2  2  2  2  2  0  0  0
++         0  0  0  0  0  0  0  0  0  0  0  0  0  0  0  0  0
++         0  0  0  0  0  0  0  0  0  0  0  0  0  0  0  0  0
++         0  0  0  0  0  0  0  0  0  0  0  0  0  0  0  0  0
%c G  cc GPS ccc cccc cccc cccc cccc ccccc ccccc ccccc ccccc
%c cc cc ccc ccc cccc cccc cccc cccc ccccc ccccc ccccc ccccc
%f  1.2500000  1.025000000  0.00000000000  0.000000000000000
%f  0.0000000  0.000000000  0.00000000000  0.000000000000000
%i    0    0    0    0      0      0      0      0         0
%i    0    0    0    0      0      0      0      0         0
/* FINAL ORBIT COMBINATION FROM WEIGHTED AVERAGE OF:        
/* cod emr esa gfz grg jpl mit ngs                          
/* REFERENCED TO IGS TIME (IGST) AND TO WEIGHTED MEAN POLE: 
/* PCV:IGS08_1771 OL/AL:FES2004  NONE     Y  ORB:CMB CLK:CMB
*  2014  2 13  8 15  0.00000000
PG01  17562.379066   4258.458408  19473.313031     -1.082159  1  5  4 107       
PG02 -14944.408780 -22019.587913  -3197.996992    478.366662  7  9 10 159       
PG03  20216.456694   9070.289285 -15307.021970    325.153888  1  7  3 142       
PG04  -4081.311123 -23809.292843  10453.949360 999999.999999
PG05  -9558.319591 -13195.356763 -20992.681869   -388.733939  8  8  4 142       
PG06  13098.210889  13358.033108 -18951.784109    273.762691  4  6  3 154       
PG07  10793.704856 -11050.004524 -21494.928402    313.365385  4  8  2 137       
PG08   3621.436148 -20165.887632 -16399.181283     11.881218 10  8  9 122       
PG09   1496.480663 -20991.394696 -16634.118110    305.152278 10  7 10 122       
PG10   6288.789090 -23534.584452 -10386.375734   -114.114716  6  7  4 131       
PG11  22203.704782   9067.826334  11157.693215   -463.889653  5  6  6 103       
PG12 -17772.053921   3366.208241  19317.282416    186.147861  6  8  4 144       
PG13  22138.030635  -6058.774817 -13628.311222     30.097020  6  8  6 126       
PG14  -5974.771632  14299.973648  21766.168941    198.680455  5  7  6 132       
PG15 -25690.501642  -4425.604016  -5883.902655   -162.878805  6  9  7 146       
PG16   8657.998506  12580.450198 -21714.860510   -231.713747  6  9  7 134       
PG17   4275.143781 -14773.862028  21885.489288    -67.864682  5  8  5 121       
PG18 -16609.421698  19794.677605  -4886.591029    301.659511  4  6  5  99       
PG19  24870.592931   7758.309465  -6377.813962   -438.567944  7  7  6 155       
PG20  18603.000374  -6397.006692  17619.614673    161.303777  3  5  4 134       
PG21 -10101.498503  12905.828610 -20207.512036   -343.710879  6  5  4  86       
PG22  -9369.005389  24006.827784   6285.423748    213.093874  7  8  4 139       
PG23  26683.428658   -242.798363  -2188.656257      4.362149  7  7  4 147       
PG24 -18417.895887  -9283.107414  16771.807236    -23.245863  4  6  7 136       
PG25 -18420.508591  15611.998934  10862.387807     14.310492  8  7  6 153       
PG26 -17537.626850 -13200.562435 -15830.053326    166.451567  6  6  6 122       
PG27  16072.350381  12486.385026 -17086.653088    -18.489955  6  7  5 135       
PG28  12651.946506 -22902.566772   4683.576079    332.159237  5  8  4 129       
PG29 -23602.568387   5362.015831 -10845.022500    510.617123  5  8  5  98       
PG31   6150.340637  24491.793340   7860.076512    333.188705  7  8  7 151       
PG32  13776.798581   7393.256284  21499.420058   -486.467667  4  6  4 114       
*  2014  2 13  8 30  0.00000000
PG01  18510.996360   6189.959801  18036.328177     -1.080325     4  4 117       
PG02 -14827.770156 -22361.222532   -423.992246    478.368808  7  8 10 161       
PG03  18492.693184   9511.235316 -17157.732736    325.159332  2  6  3 148       
PG04  -3135.544475 -22754.957041  12817.077535      5.517936  7  5  7 150       
PG05  -8297.276366 -15184.152487 -20152.390932   -388.732471  8  8  3 154       
PG06  10870.226596  13605.109053 -20108.933952    273.775546  4  6  3 154       
PG07  12015.643293  -8873.563171 -21879.160285    313.369221  4  8  2 130       
PG08   4524.007076 -18350.916124 -18242.445712     11.881452  9  7  9  94       
PG09   2540.101327 -19382.295756 -18434.985940    305.153963 10  7  9 125       
PG10   7073.163839 -24245.893852  -7811.991297   -114.116927  6  6  4 126       
PG11  22834.957872  10172.779155   8802.224888   -463.892295  5  6  7 102       
PG12 -16616.839181   1384.372068  20565.295765    186.149906  6  8  3 147       
PG13  23508.267134  -5748.836551 -11247.713239     30.093376  5  7  5 124       
PG14  -8370.418620  14053.394970  21108.710185    198.677747  4  7  6 140       
PG15 -24884.821065  -4729.174528  -8513.733592   -162.880680  7  9  7 149       
PG16   7263.176718  14575.181431 -20933.548257   -231.712300  7  8  7 137       
PG17   6692.205057 -14608.101889  21358.651981    -67.867645  5  8  5 102       
PG18 -16544.719162  18940.094558  -7564.760350    301.661367  4  5  6  96       
PG19  23999.696864   7866.809914  -9034.524707   -438.570007  7  7  6 161       
PG20  17795.558980  -4402.409334  19002.629196    161.306665  3  5  4 140       
PG21 -11422.668204  10795.834496 -20762.010503   -343.712360  6  6  3  93       
PG22  -9955.157966  24300.798244   3573.637700    213.096098  7  7  4 136       
PG23  26778.070347      6.100163    625.318659      4.359071  7  6  4 149       
PG24 -19176.260879 -10932.931157  14823.056099    -23.246986  5  6  7 138       
PG25 -17886.076493  14313.785124  13275.081929     14.312138  8  7  5 145       
PG26 -15741.603431 -13121.600263 -17722.062283    166.441778  6  6  6 112       
PG27  14025.662283  12620.746905 -18710.038112    -18.490995  6  7  4 136       
PG28  12978.575625 -23049.543435   1801.614202    332.161960  5  7  3 129       
PG29 -24687.757732   5085.822472  -8261.597947    510.619607  5  7  5 107       
PG31   5484.623241  23671.855324  10505.348001    333.188996  7  7  6 145       
PG32  12384.518217   9418.967194  21603.124166   -486.462055  5  5  3 120       
*  2014  2 13  8 45  0.00000000
PG01  19461.328896   7916.836988  16289.514959     -1.078379  2  4  4 128       
PG02 -14555.463507 -22450.939564   2357.115686    478.370685  7  7 10 156       
PG03  16609.709052  10073.453152 -18726.097300    325.163254  2  6  3 148       
PG04  -1997.979753 -21531.809133  14953.122012      5.517925  6  5  7 142       
PG05  -7187.777700 -17132.509011 -18965.392980   -388.731190  8  8  3 150       
PG06   8543.293801  13976.762204 -20921.651372    273.788593  4  5  3 153       
PG07  13363.289562  -6750.100668 -21884.014996    313.372932  5  8  2 134       
PG08   5611.758677 -16418.870051 -19761.248559     11.881047  9  7  8 102       
PG09   3769.819520 -17683.406350 -19929.445643    305.155896 10  7  9 115       
PG10   7685.794888 -24729.662322  -5101.309446   -114.116336  6  6  4 124       
PG11  23300.188192  11073.038779   6294.235593   -463.895124  6  5  7 113       
PG12 -15515.537318   -763.909068  21456.059867    186.151874  7  7  3 146       
PG13  24615.123972  -5528.776793  -8676.283858     30.090292  6  7  4 127       
PG14 -10683.929125  13938.568895  20093.887494    198.675183  4  7  6 140       
PG15 -23809.250613  -5096.714816 -10999.680057   -162.882431  7  9  7 145       
PG16   6035.027029  16552.797195 -19790.478575   -231.711121  8  8  7 141       
PG17   9038.203756 -14571.264469  20471.155871    -67.870508  5  8  4  86       
PG18 -16386.395516  17814.747967 -10108.224211    301.663351  4  4  6 110       
PG19  22847.096644   8010.530771 -11540.263649   -438.572260  8  7  6 141       
PG20  17025.441157  -2245.871167  20052.822614    161.310438  4  6  4 140       
PG21 -12859.568545   8716.199590 -20937.496201   -343.714171  6  5  3 113       
PG22 -10389.236245  24344.883707    799.964376    213.098318  7  7  4 127       
PG23  26571.166193    262.309597   3428.806263      4.356037  7  6  5 153       
PG24 -19889.048017 -12345.341798  12620.036217    -23.246900  5  6  8 143       
PG25 -17305.264700  12754.879268  15457.155815     14.313796  8  7  5 145       
PG26 -13753.404914 -13134.789430 -19326.717657    166.431859  6  5  6 114       
PG27  11823.302740  12871.513725 -20011.887426    -18.492025  6  7  2 141       
PG28  13134.481340 -22928.105956  -1111.456751    332.164888  4  7  3 112       
PG29 -25484.588411   4867.214408  -5535.421600    510.622345  5  7  5 125       
PG31   4625.462455  22642.014796  12968.042304    333.189207  7  7  6 142       
PG32  11103.538608  11499.809596  21337.728975   -486.456368  5  6  4 122       
EOF
